[
    {
        "Altitude(m)": 562121.5446008282,
        "Argument of Periapsis(deg)": 0.006622991110713501,
        "Eccentricity": 0.0,
        "Inclination(deg)": 53.0,
        "Latitude(deg)": -29.055427833675918,
        "Longitude(deg)": 89.62157797248895,
        "Mean Anomaly(deg)": -37.181107132422376,
        "RAAN(deg)": 214.990143368528,
        "Satellite Name": "Starlink Shell 1 965",
        "Satellite Number": 965,
        "Semi-Major Axis(m)": 6931778.249405717,
        "Time(s)": 190
    },
    {
        "Altitude(m)": 561946.9653777517,
        "Argument of Periapsis(deg)": 0.0069715695902247375,
        "Eccentricity": 0.0,
        "Inclination(deg)": 53.0,
        "Latitude(deg)": -28.598190543100603,
        "Longitude(deg)": 90.06938578874176,
        "Mean Anomaly(deg)": -36.5542759288656,
        "RAAN(deg)": 214.98962459845058,
        "Satellite Name": "Starlink Shell 1 965",
        "Satellite Number": 965,
        "Semi-Major Axis(m)": 6931778.249405717,
        "Time(s)": 200
    },
    {
        "Altitude(m)": 561772.7511473113,
        "Argument of Periapsis(deg)": 0.007320148069735974,
        "Eccentricity": 0.0,
        "Inclination(deg)": 53.0,
        "Latitude(deg)": -28.139160158659774,
        "Longitude(deg)": 90.51298831157963,
        "Mean Anomaly(deg)": -35.92744472530896,
        "RAAN(deg)": 214.98910582837306,
        "Satellite Name": "Starlink Shell 1 965",
        "Satellite Number": 965,
        "Semi-Major Axis(m)": 6931778.249405717,
        "Time(s)": 210
    },
    {
        "Altitude(m)": 561598.9665307242,
        "Argument of Periapsis(deg)": 0.007668726549247212,
        "Eccentricity": 0.0,
        "Inclination(deg)": 53.0,
        "Latitude(deg)": -27.678384283668336,
        "Longitude(deg)": 90.95248505164012,
        "Mean Anomaly(deg)": -35.30061352175218,
        "RAAN(deg)": 214.98858705829562,
        "Satellite Name": "Starlink Shell 1 965",
        "Satellite Number": 965,
        "Semi-Major Axis(m)": 6931778.249405717,
        "Time(s)": 220
    },
    {
        "Altitude(m)": 561425.675810627,
        "Argument of Periapsis(deg)": 0.00801730502875845,
        "Eccentricity": 0.0,
        "Inclination(deg)": 53.0,
        "Latitude(deg)": -27.215909496260235,
        "Longitude(deg)": 91.3879742193817,
        "Mean Anomaly(deg)": -34.673782318195514,
        "RAAN(deg)": 214.98806828821813,
        "Satellite Name": "Starlink Shell 1 965",
        "Satellite Number": 965,
        "Semi-Major Axis(m)": 6931778.249405717,
        "Time(s)": 230
    },
    {
        "Altitude(m)": 561252.9429022348,
        "Argument of Periapsis(deg)": 0.008365883508269684,
        "Eccentricity": 0.0,
        "Inclination(deg)": 53.0,
        "Latitude(deg)": -26.751781378779917,
        "Longitude(deg)": 91.81955323020384,
        "Mean Anomaly(deg)": -34.046951114638766,
        "RAAN(deg)": 214.98754951814067,
        "Satellite Name": "Starlink Shell 1 965",
        "Satellite Number": 965,
        "Semi-Major Axis(m)": 6931778.249405717,
        "Time(s)": 240
    },
    {
        "Altitude(m)": 561080.8313246665,
        "Argument of Periapsis(deg)": 0.008714461987780921,
        "Eccentricity": 0.0,
        "Inclination(deg)": 53.0,
        "Latitude(deg)": -26.286044546706307,
        "Longitude(deg)": 92.24731769937311,
        "Mean Anomaly(deg)": -33.42011991108202,
        "RAAN(deg)": 214.9870307480632,
        "Satellite Name": "Starlink Shell 1 965",
        "Satellite Number": 965,
        "Semi-Major Axis(m)": 6931778.249405717,
        "Time(s)": 250
    },
    {
        "Altitude(m)": 560909.4041724774,
        "Argument of Periapsis(deg)": 0.009063040467292158,
        "Eccentricity": 0.0,
        "Inclination(deg)": 53.0,
        "Latitude(deg)": -25.81874267709223,
        "Longitude(deg)": 92.6713619522817,
        "Mean Anomaly(deg)": -32.79328870752535,
        "RAAN(deg)": 214.9865119779857,
        "Satellite Name": "Starlink Shell 1 965",
        "Satellite Number": 965,
        "Semi-Major Axis(m)": 6931778.249405717,
        "Time(s)": 260
    },
    {
        "Altitude(m)": 560738.7240873135,
        "Argument of Periapsis(deg)": 0.009411618946803396,
        "Eccentricity": 0.0,
        "Inclination(deg)": 53.0,
        "Latitude(deg)": -25.34991853650889,
        "Longitude(deg)": 93.09177953695816,
        "Mean Anomaly(deg)": -32.16645750396858,
        "RAAN(deg)": 214.98599320790825,
        "Satellite Name": "Starlink Shell 1 965",
        "Satellite Number": 965,
        "Semi-Major Axis(m)": 6931778.249405717,
        "Time(s)": 270
    },
    {
        "Altitude(m)": 560568.8532298635,
        "Argument of Periapsis(deg)": 0.009760197426314633,
        "Eccentricity": 0.0,
        "Inclination(deg)": 53.0,
        "Latitude(deg)": -24.879614008486147,
        "Longitude(deg)": 93.50866222576512,
        "Mean Anomaly(deg)": -31.539626300411935,
        "RAAN(deg)": 214.9854744378308,
        "Satellite Name": "Starlink Shell 1 965",
        "Satellite Number": 965,
        "Semi-Major Axis(m)": 6931778.249405717,
        "Time(s)": 280
    },
    {
        "Altitude(m)": 560399.8532519569,
        "Argument of Periapsis(deg)": 0.01010877590582587,
        "Eccentricity": 0.0,
        "Inclination(deg)": 53.0,
        "Latitude(deg)": -24.407870120440556,
        "Longitude(deg)": 93.92210053184888,
        "Mean Anomaly(deg)": -30.912795096855163,
        "RAAN(deg)": 214.9849556677533,
        "Satellite Name": "Starlink Shell 1 965",
        "Satellite Number": 965,
        "Semi-Major Axis(m)": 6931778.249405717,
        "Time(s)": 290
    },
    {
        "Altitude(m)": 560231.7852689585,
        "Argument of Periapsis(deg)": 0.010457354385337106,
        "Eccentricity": 0.0,
        "Inclination(deg)": 53.0,
        "Latitude(deg)": -23.93472707008865,
        "Longitude(deg)": 94.33218422729885,
        "Mean Anomaly(deg)": -30.285963893298415,
        "RAAN(deg)": 214.98443689767583,
        "Satellite Name": "Starlink Shell 1 965",
        "Satellite Number": 965,
        "Semi-Major Axis(m)": 6931778.249405717,
        "Time(s)": 300
    },
    {
        "Altitude(m)": 560064.7098323421,
        "Argument of Periapsis(deg)": 0.010805932864848343,
        "Eccentricity": 0.0,
        "Inclination(deg)": 53.0,
        "Latitude(deg)": -23.460224251340822,
        "Longitude(deg)": 94.7390013499897,
        "Mean Anomaly(deg)": -29.65913268974177,
        "RAAN(deg)": 214.98391812759834,
        "Satellite Name": "Starlink Shell 1 965",
        "Satellite Number": 965,
        "Semi-Major Axis(m)": 6931778.249405717,
        "Time(s)": 310
    },
    {
        "Altitude(m)": 559898.6869025925,
        "Argument of Periapsis(deg)": 0.01115451134435958,
        "Eccentricity": 0.0,
        "Inclination(deg)": 53.0,
        "Latitude(deg)": -22.984400279676183,
        "Longitude(deg)": 95.1426387247041,
        "Mean Anomaly(deg)": -29.032301486185073,
        "RAAN(deg)": 214.9833993575209,
        "Satellite Name": "Starlink Shell 1 965",
        "Satellite Number": 965,
        "Semi-Major Axis(m)": 6931778.249405717,
        "Time(s)": 320
    },
    {
        "Altitude(m)": 559733.7758223517,
        "Argument of Periapsis(deg)": 0.011503089823870818,
        "Eccentricity": 0.0,
        "Inclination(deg)": 53.0,
        "Latitude(deg)": -22.507293016999345,
        "Longitude(deg)": 95.54318248552727,
        "Mean Anomaly(deg)": -28.405470282628325,
        "RAAN(deg)": 214.9828805874434,
        "Satellite Name": "Starlink Shell 1 965",
        "Satellite Number": 965,
        "Semi-Major Axis(m)": 6931778.249405717,
        "Time(s)": 330
    },
    {
        "Altitude(m)": 559570.0352898544,
        "Argument of Periapsis(deg)": 0.011851668303382053,
        "Eccentricity": 0.0,
        "Inclination(deg)": 53.0,
        "Latitude(deg)": -22.028939595981093,
        "Longitude(deg)": 95.94071708651747,
        "Mean Anomaly(deg)": -27.77863907907158,
        "RAAN(deg)": 214.98236181736596,
        "Satellite Name": "Starlink Shell 1 965",
        "Satellite Number": 965,
        "Semi-Major Axis(m)": 6931778.249405717,
        "Time(s)": 340
    },
    {
        "Altitude(m)": 559407.5233326762,
        "Argument of Periapsis(deg)": 0.012200246782893292,
        "Eccentricity": 0.0,
        "Inclination(deg)": 53.0,
        "Latitude(deg)": -21.54937644388654,
        "Longitude(deg)": 96.33532582627954,
        "Mean Anomaly(deg)": -27.15180787551491,
        "RAAN(deg)": 214.98184304728846,
        "Satellite Name": "Starlink Shell 1 965",
        "Satellite Number": 965,
        "Semi-Major Axis(m)": 6931778.249405717,
        "Time(s)": 350
    },
    {
        "Altitude(m)": 559246.2972817962,
        "Argument of Periapsis(deg)": 0.012548825262404526,
        "Eccentricity": 0.0,
        "Inclination(deg)": 53.0,
        "Latitude(deg)": -21.068639305895765,
        "Longitude(deg)": 96.72709137346102,
        "Mean Anomaly(deg)": -26.524976671958267,
        "RAAN(deg)": 214.981324277211,
        "Satellite Name": "Starlink Shell 1 965",
        "Satellite Number": 965,
        "Semi-Major Axis(m)": 6931778.249405717,
        "Time(s)": 360
    },
    {
        "Altitude(m)": 559086.4137459794,
        "Argument of Periapsis(deg)": 0.012897403741915765,
        "Eccentricity": 0.0,
        "Inclination(deg)": 53.0,
        "Latitude(deg)": -20.586763267923175,
        "Longitude(deg)": 97.1160947801998,
        "Mean Anomaly(deg)": -25.898145468401495,
        "RAAN(deg)": 214.98080550713354,
        "Satellite Name": "Starlink Shell 1 965",
        "Satellite Number": 965,
        "Semi-Major Axis(m)": 6931778.249405717,
        "Time(s)": 370
    }
]